GLOBALSTAR M023         
1 25621U 99004A   25217.53960492 -.00000147  00000+0 -23913-3 0  9997
2 25621  52.0100 263.1641 0010090 233.8464 274.0808 12.62501621221964
GLOBALSTAR M040         
1 25622U 99004B   25217.61733931 -.00000048  00000+0  31298-3 0  9997
2 25622  51.9908 267.1566 0001187 140.7541  24.9158 12.62014154221496
GLOBALSTAR M036         
1 25623U 99004C   25217.43005095 -.00000102  00000+0 -28115-3 0  9997
2 25623  51.9965 110.5273 0011036 141.8272  29.3865 11.86605757184822
GLOBALSTAR M038         
1 25624U 99004D   25217.58359286 -.00000064  00000+0  25528-3 0  9999
2 25624  51.9979 289.3191 0002292 152.3543 354.8776 12.32530056208469
GLOBALSTAR M022         
1 25649U 99012A   25217.21928009 -.00000104  00000+0 -20082-3 0  9996
2 25649  52.0028 157.6093 0002419 280.5360 227.0378 12.02502277182352
GLOBALSTAR M041         
1 25650U 99012B   25217.49890088 -.00000076  00000+0  12047-3 0  9992
2 25650  52.0032  39.8052 0002328  64.2232 295.8844 11.96680815184180
GLOBALSTAR M046         
1 25651U 99012C   25217.46188012 -.00000066  00000+0  25424-3 0  9999
2 25651  52.0054 105.2862 0002512   7.9040 163.3419 12.09412960189628
GLOBALSTAR M037         
1 25652U 99012D   25217.57341287 -.00000071  00000+0  18063-3 0  9994
2 25652  52.0016  33.6601 0001334 316.8976  71.1053 12.62449370217517
